NORAD_CAT_ID,OBJECT_NAME,OBJECT_TYPE,EPOCH,MEAN_MOTION,ECCENTRICITY,INCLINATION,RA_OF_ASC_NODE,ARG_OF_PERICENTER,MEAN_ANOMALY,BSTAR,MEAN_MOTION_DOT,MEAN_MOTION_DDOT,TLE_LINE0,TLE_LINE1,TLE_LINE2,SEMIMAJOR_AXIS,PERIOD,APOGEE,PERIGEE,DECAYED
55647.0,STARLINK-5510,PAYLOAD,2023-04-01 05:22:27,15.69923541,0.0003177,69.9993,30.572,257.9211,102.1629,-3.3954e-06,-6.21e-06,0.0,0 STARLINK-5510,1 55647U 23021V   23091.22393411 -.00000621  00000-0 -33954-5 0  9995,2 55647  69.9993  30.5720 0003177 257.9211 102.1629 15.69923541  7515,6737.253,91.724,361.258,356.977,0.0
55647.0,STARLINK-5510,PAYLOAD,2023-04-02 05:50:30,15.69917255,0.0002307,70.0008,27.7047,288.1375,71.9569,-1.8186e-05,-2.397e-05,0.0,0 STARLINK-5510,1 55647U 23021V   23092.24340335 -.00002397  00000-0 -18186-4 0  9996,2 55647  70.0008  27.7047 0002307 288.1375  71.9569 15.69917255  7360,6737.271,91.725,360.69,357.581,0.0
55647.0,STARLINK-5510,PAYLOAD,2023-04-02 21:08:01,15.69919247,0.0003559,69.9989,25.915,266.4297,93.6491,2.7711e-06,1.2e-06,0.0,0 STARLINK-5510,1 55647U 23021V   23092.88057077  .00000120  00000-0  27711-5 0  9999,2 55647  69.9989  25.9150 0003559 266.4297  93.6491 15.69919247  7775,6737.265,91.724,361.528,356.732,0.0
55647.0,STARLINK-5510,PAYLOAD,2023-04-03 04:46:46,15.6992019,0.0003312,69.9996,25.0192,265.5971,94.4846,1.9429e-05,2.124e-05,0.0,0 STARLINK-5510,1 55647U 23021V   23093.19915265  .00002124  00000-0  19429-4 0  9998,2 55647  69.9996  25.0192 0003312 265.5971  94.4846 15.69920190  7824,6737.262,91.724,361.359,356.896,0.0
55647.0,STARLINK-5510,PAYLOAD,2023-04-03 21:36:02,15.69926046,0.000356,70.0013,23.048,266.5392,93.5396,5.0405e-06,3.93e-06,0.0,0 STARLINK-5510,1 55647U 23021V   23093.90003219  .00000393  00000-0  50405-5 0  9990,2 55647  70.0013  23.0480 0003560 266.5392  93.5396 15.69926046  7936,6737.246,91.724,361.509,356.712,0.0
55647.0,STARLINK-5510,PAYLOAD,2023-04-04 05:14:49,15.6990596,0.0002942,70.0033,22.1554,256.0152,104.0717,-3.0228e-05,-3.842e-05,0.0,0 STARLINK-5510,1 55647U 23021V   23094.21862639 -.00003842  00000-0 -30228-4 0  9998,2 55647  70.0033  22.1554 0002942 256.0152 104.0717 15.69905960  7679,6737.303,91.725,361.15,357.186,0.0
55647.0,STARLINK-5510,PAYLOAD,2023-04-04 06:46:34,15.6991283,0.0002728,70.0027,21.9754,267.2152,92.8732,-1.6235e-05,-2.163e-05,0.0,0 STARLINK-5510,1 55647U 23021V   23094.28234075 -.00002163  00000-0 -16235-4 0  9999,2 55647  70.0027  21.9754 0002728 267.2152  92.8732 15.69912830  7997,6737.283,91.725,360.986,357.31,0.0
55647.0,STARLINK-5510,PAYLOAD,2023-04-04 22:04:05,15.69916451,0.0003441,70.001,20.1811,266.3498,93.7304,-6.0235e-07,-2.85e-06,0.0,0 STARLINK-5510,1 55647U 23021V   23094.91950604 -.00000285  00000-0 -60235-6 0  9996,2 55647  70.0010  20.1811 0003441 266.3498  93.7304 15.69916451  8090,6737.273,91.725,361.456,356.82,0.0
55647.0,STARLINK-5510,PAYLOAD,2023-04-05 04:11:05,15.69925331,0.0003128,70.0009,19.4662,273.2738,86.81,1.4668e-05,1.551e-05,0.0,0 STARLINK-5510,1 55647U 23021V   23095.17436970  .00001551  00000-0  14668-4 0  9992,2 55647  70.0009  19.4662 0003128 273.2738  86.8100 15.69925331  7823,6737.248,91.724,361.22,357.005,0.0
55647.0,STARLINK-5510,PAYLOAD,2023-04-05 21:00:21,15.69928849,0.0003162,70.0013,17.4966,269.6493,90.4341,1.1286e-05,1.145e-05,0.0,0 STARLINK-5510,1 55647U 23021V   23095.87525187  .00001145  00000-0  11286-4 0  9990,2 55647  70.0013  17.4966 0003162 269.6493  90.4341 15.69928849  8240,6737.238,91.724,361.233,356.972,0.0
55647.0,STARLINK-5510,PAYLOAD,2023-04-06 06:10:52,15.69935757,0.000351,70.0015,16.4207,269.2721,90.8073,2.3432e-05,2.607e-05,0.0,0 STARLINK-5510,1 55647U 23021V   23096.25754694  .00002607  00000-0  23432-4 0  9990,2 55647  70.0015  16.4207 0003510 269.2721  90.8073 15.69935757  7999,6737.218,91.723,361.448,356.718,0.0
55647.0,STARLINK-5510,PAYLOAD,2023-04-07 05:07:09,15.69925887,0.0002994,70.0018,13.7336,270.764,89.3212,6.8798e-06,6.15e-06,0.0,0 STARLINK-5510,1 55647U 23021V   23097.21330329  .00000615  00000-0  68798-5 0  9994,2 55647  70.0018  13.7336 0002994 270.7640  89.3212 15.69925887  8146,6737.246,91.724,361.128,357.094,0.0
55647.0,STARLINK-5510,PAYLOAD,2023-04-08 05:35:11,15.69918789,0.0002985,70.002,10.8686,263.869,96.2166,-1.9117e-06,-4.42e-06,0.0,0 STARLINK-5510,1 55647U 23021V   23098.23277373 -.00000442  00000-0 -19117-5 0  9997,2 55647  70.0020  10.8686 0002985 263.8690  96.2166 15.69918789  8309,6737.266,91.724,361.142,357.12,0.0
55647.0,STARLINK-5510,PAYLOAD,2023-04-09 04:31:28,15.69923758,0.0003379,70.0012,8.1823,261.5464,98.5349,2.008e-05,2.202e-05,0.0,0 STARLINK-5510,1 55647U 23021V   23099.18852191  .00002202  00000-0  20080-4 0  9993,2 55647  70.0012   8.1823 0003379 261.5464  98.5349 15.69923758  8765,6737.252,91.724,361.394,356.841,0.0
55647.0,STARLINK-5510,PAYLOAD,2023-04-09 18:17:15,15.69899659,0.0003028,70.0009,6.571,260.2621,99.8233,0.00010233,0.00012096,0.0,0 STARLINK-5510,1 55647U 23021V   23099.76198254  .00012096  00000-0  10233-3 0  9990,2 55647  70.0009   6.5710 0003028 260.2621  99.8233 15.69899659  8858,6737.321,91.726,361.226,357.146,0.0
55647.0,STARLINK-5510,PAYLOAD,2023-04-10 00:24:14,15.69926795,0.0003821,70.0006,5.8537,263.2042,96.8719,7.8491e-07,-1.19e-06,0.0,0 STARLINK-5510,1 55647U 23021V   23100.01683802 -.00000119  00000-0  78491-6 0  9996,2 55647  70.0006   5.8537 0003821 263.2042  96.8719 15.69926795  8583,6737.243,91.724,361.683,356.534,0.0
55647.0,STARLINK-5510,PAYLOAD,2023-04-10 04:59:30,15.69923432,0.0003234,70.0011,5.3145,265.1802,94.9024,-9.3738e-06,-1.339e-05,0.0,0 STARLINK-5510,1 55647U 23021V   23100.20799085 -.00001339  00000-0 -93738-5 0  9994,2 55647  70.0011   5.3145 0003234 265.1802  94.9024 15.69923432  8923,6737.253,91.724,361.297,356.939,0.0
55647.0,STARLINK-5510,PAYLOAD,2023-04-11 03:55:47,15.69917713,0.0002538,70.0017,2.6302,279.0064,81.0845,-2.0517e-06,-4.59e-06,0.0,0 STARLINK-5510,1 55647U 23021V   23101.16374592 -.00000459  00000-0 -20517-5 0  9999,2 55647  70.0017   2.6302 0002538 279.0064  81.0845 15.69917713  8769,6737.269,91.725,360.844,357.425,0.0
55647.0,STARLINK-5510,PAYLOAD,2023-04-12 02:52:04,15.69916183,0.0002871,70.0004,359.9407,325.4595,34.6413,-7.0733e-06,-1.062e-05,0.0,0 STARLINK-5510,1 55647U 23021V   23102.11950219 -.00001062  00000-0 -70733-5 0  9997,2 55647  70.0004 359.9407 0002871 325.4595  34.6413 15.69916183  9221,6737.274,91.725,361.073,357.205,0.0
55647.0,STARLINK-5510,PAYLOAD,2023-04-13 03:20:06,15.69921504,0.0002893,70.0006,357.0756,274.5881,85.4984,2.8608e-05,3.228e-05,0.0,0 STARLINK-5510,1 55647U 23021V   23103.13896380  .00003228  00000-0  28608-4 0  9995,2 55647  70.0006 357.0756 0002893 274.5881  85.4984 15.69921504  9382,6737.259,91.724,361.073,357.174,0.0
55647.0,STARLINK-5510,PAYLOAD,2023-04-13 20:09:22,15.69925329,0.0003246,69.9994,355.1015,271.5672,88.5152,2.319e-05,2.577e-05,0.0,0 STARLINK-5510,1 55647U 23021V   23103.83984287  .00002577  00000-0  23190-4 0  9993,2 55647  69.9994 355.1015 0003246 271.5672  88.5152 15.69925329  9188,6737.248,91.724,361.3,356.926,0.0
55647.0,STARLINK-5510,PAYLOAD,2023-04-14 12:58:39,15.69914335,0.0003348,69.9989,353.1328,282.8095,77.2727,-5.749e-06,-9.04e-06,0.0,0 STARLINK-5510,1 55647U 23021V   23104.54073237 -.00000904  00000-0 -57490-5 0  9991,2 55647  69.9989 353.1328 0003348 282.8095  77.2727 15.69914335  9609,6737.279,91.725,361.4,356.888,0.0
55647.0,STARLINK-5510,PAYLOAD,2023-04-14 19:05:39,15.69927809,0.0003239,70.0006,352.4168,266.3286,93.7539,2.1875e-05,2.419e-05,0.0,0 STARLINK-5510,1 55647U 23021V   23104.79559450  .00002419  00000-0  21875-4 0  9992,2 55647  70.0006 352.4168 0003239 266.3286  93.7539 15.69927809  9338,6737.241,91.724,361.288,356.923,0.0
55647.0,STARLINK-5510,PAYLOAD,2023-04-15 02:44:25,15.69907242,0.0003022,70.001,351.5216,277.8723,82.213,-2.4529e-05,-3.158e-05,0.0,0 STARLINK-5510,1 55647U 23021V   23105.11418563 -.00003158  00000-0 -24529-4 0  9990,2 55647  70.0010 351.5216 0003022 277.8723  82.2130 15.69907242  9384,6737.299,91.725,361.2,357.128,0.0
55647.0,STARLINK-5510,PAYLOAD,2023-04-15 19:33:41,15.69922823,0.0003463,70.0016,349.5505,270.8066,89.2733,-1.3037e-05,-1.78e-05,0.0,0 STARLINK-5510,1 55647U 23021V   23105.81506100 -.00001780  00000-0 -13037-4 0  9993,2 55647  70.0016 349.5505 0003463 270.8066  89.2733 15.69922823  9490,6737.255,91.724,361.453,356.787,0.0
55647.0,STARLINK-5510,PAYLOAD,2023-04-16 01:40:41,15.69927311,0.0003143,70.0012,348.8333,269.6462,90.4374,7.0322e-06,6.33e-06,0.0,0 STARLINK-5510,1 55647U 23021V   23106.06992692  .00000633  00000-0  70322-5 0  9991,2 55647  70.0012 348.8333 0003143 269.6462  90.4374 15.69927311  9849,6737.242,91.724,361.224,356.989,0.0
55647.0,STARLINK-5510,PAYLOAD,2023-04-16 18:29:58,15.69935568,0.0002645,70.0024,346.8642,254.8246,105.2657,3.8146e-05,4.378e-05,0.0,0 STARLINK-5510,1 55647U 23021V   23106.77081212  .00004378  00000-0  38146-4 0  9993,2 55647  70.0024 346.8642 0002645 254.8246 105.2657 15.69935568  9959,6737.218,91.724,360.865,357.301,0.0
55647.0,STARLINK-5510,PAYLOAD,2023-04-17 03:40:29,15.69921964,0.0003067,69.9994,345.7875,278.0982,81.9866,-3.146e-06,-5.91e-06,0.0,0 STARLINK-5510,1 55647U 23021V   23107.15311713 -.00000591  00000-0 -31460-5 0  9996,2 55647  69.9994 345.7875 0003067 278.0982  81.9866 15.69921964 10018,6737.257,91.724,361.189,357.056,0.0
55647.0,STARLINK-5510,PAYLOAD,2023-04-17 22:01:30,15.69930264,0.0003517,69.9999,343.6382,269.0678,91.0115,3.6547e-05,4.185e-05,0.0,0 STARLINK-5510,1 55647U 23021V   23107.91771536  .00004185  00000-0  36547-4 0  9994,2 55647  69.9999 343.6382 0003517 269.0678  91.0115 15.69930264 10130,6737.234,91.724,361.468,356.729,0.0
55647.0,STARLINK-5510,PAYLOAD,2023-04-18 04:08:30,15.69940673,0.0003412,70.0009,342.9228,271.215,88.8654,6.0371e-05,7.057e-05,0.0,0 STARLINK-5510,1 55647U 23021V   23108.17257963  .00007057  00000-0  60371-4 0  9999,2 55647  70.0009 342.9228 0003412 271.2150  88.8654 15.69940673 10171,6737.204,91.723,361.367,356.77,0.0
